[
  {
    "id": 1,
    "order_number": "GT45 QYTY FV34 LMFV SBHM I2SE XFKD",
    "packaging": 1,
    "weight": 96,
    "name": "Nikos Clemits",
    "street": "44282 Ridgeway Trail",
    "city": "Oakland",
    "state": "California",
    "zip_code": "94605",
    "quantity": 69,
    "image": "/1.webp"
  },
  {
    "id": 2,
    "order_number": "IT81 N666 8200 975X BX1A IDEW UHD",
    "packaging": 2,
    "weight": 75,
    "name": "Jackie Lenthall",
    "street": "41 Hayes Way",
    "city": "Baltimore",
    "state": "Maryland",
    "zip_code": "21239",
    "quantity": 95,
    "image": "/2.webp"
  },
  {
    "id": 3,
    "order_number": "BA32 9128 3136 9209 3782",
    "packaging": 3,
    "weight": 66,
    "name": "Dorie Goodsir",
    "street": "041 Marquette Plaza",
    "city": "Fort Worth",
    "state": "Texas",
    "zip_code": "76162",
    "quantity": 82,
    "image": "/3.avif"
  },
  {
    "id": 4,
    "order_number": "NL69 CEFA 6523 7252 20",
    "packaging": 4,
    "weight": 83,
    "name": "Baldwin McLeman",
    "street": "07763 Hooker Pass",
    "city": "Fayetteville",
    "state": "North Carolina",
    "zip_code": "28305",
    "quantity": 50,
    "image": "/4.avif"
  },
  {
    "id": 5,
    "order_number": "AT19 2931 5573 6941 7492",
    "packaging": 5,
    "weight": 86,
    "name": "Priscella Rispin",
    "street": "6 Eagan Trail",
    "city": "Washington",
    "state": "District of Columbia",
    "zip_code": "20546",
    "quantity": 96,
    "image": "/5.avif"
  },
  {
    "id": 6,
    "order_number": "HR33 5515 0867 7898 6400 7",
    "packaging": 6,
    "weight": 69,
    "name": "Yance Tobias",
    "street": "5907 Crescent Oaks Alley",
    "city": "Houston",
    "state": "Texas",
    "zip_code": "77025",
    "quantity": 45,
    "image": "/6.avif"
  },
  {
    "id": 7,
    "order_number": "FR66 2994 5841 47BK ZF2A IUJN W22",
    "packaging": 7,
    "weight": 60,
    "name": "Trent Coull",
    "street": "1997 Clarendon Terrace",
    "city": "Littleton",
    "state": "Colorado",
    "zip_code": "80161",
    "quantity": 13,
    "image": "/7.avif"
  },
  {
    "id": 8,
    "order_number": "AD44 8914 4314 H8YG LSMV CDCR",
    "packaging": 8,
    "weight": 41,
    "name": "Devin Dethloff",
    "street": "1222 Paget Street",
    "city": "Sacramento",
    "state": "California",
    "zip_code": "94257",
    "quantity": 40,
    "image": "/8.avif"
  },
  {
    "id": 9,
    "order_number": "VG31 EGQE 0865 5217 1648 5534",
    "packaging": 9,
    "weight": 55,
    "name": "Rhodia Scouse",
    "street": "0115 Havey Pass",
    "city": "Houston",
    "state": "Texas",
    "zip_code": "77228",
    "quantity": 89,
    "image": "/9.avif"
  },
  {
    "id": 10,
    "order_number": "CH44 9318 3GTF 0XNY ZFEL Z",
    "packaging": 10,
    "weight": 96,
    "name": "Arabelle Pepye",
    "street": "9 Buell Street",
    "city": "Fresno",
    "state": "California",
    "zip_code": "93786",
    "quantity": 94,
    "image": "/10.avif"
  },
  {
    "id": 11,
    "order_number": "FR40 7820 4601 36TX MQAX NVEN 532",
    "packaging": 11,
    "weight": 89,
    "name": "Joey Kelson",
    "street": "999 Southridge Hill",
    "city": "Los Angeles",
    "state": "California",
    "zip_code": "90030",
    "quantity": 73,
    "image": "/11.avif"
  }
]
